{"fetched_at":"2026-07-10T18:08:04.475Z","source":"https://celestrak.org/NORAD/elements/gp.php?NAME=CAPELLA&FORMAT=JSON","constellation":"capella","records":[{"OBJECT_NAME":"CAPELLA-11 (ACADIA-1)","OBJECT_ID":"2023-126A","EPOCH":"2026-07-10T00:07:06.279456","CLASSIFICATION_TYPE":"U","MEAN_MOTION":14.84739223,"ECCENTRICITY":0.00010249,"INCLINATION":53.0046,"RA_OF_ASC_NODE":85.857,"ARG_OF_PERICENTER":95.7203,"MEAN_ANOMALY":264.3892,"EPHEMERIS_TYPE":0,"NORAD_CAT_ID":57693,"ELEMENT_SET_NO":999,"REV_AT_EPOCH":15551,"BSTAR":0.00035453558,"MEAN_MOTION_DOT":0.00002803,"MEAN_MOTION_DDOT":0},{"OBJECT_NAME":"CAPELLA-14 (ACADIA-4)","OBJECT_ID":"2024-066C","EPOCH":"2026-07-10T04:51:40.298400","CLASSIFICATION_TYPE":"U","MEAN_MOTION":15.0918919,"ECCENTRICITY":0.00002267,"INCLINATION":45.6019,"RA_OF_ASC_NODE":134.0485,"ARG_OF_PERICENTER":275.7523,"MEAN_ANOMALY":84.3337,"EPHEMERIS_TYPE":0,"NORAD_CAT_ID":59444,"ELEMENT_SET_NO":999,"REV_AT_EPOCH":11596,"BSTAR":0.0005237587,"MEAN_MOTION_DOT":0.00008211,"MEAN_MOTION_DDOT":0},{"OBJECT_NAME":"CAPELLA-13 (ACADIA-3)","OBJECT_ID":"2024-142A","EPOCH":"2026-07-09T20:58:29.029440","CLASSIFICATION_TYPE":"U","MEAN_MOTION":14.87663021,"ECCENTRICITY":0.00012465,"INCLINATION":53.0054,"RA_OF_ASC_NODE":318.5396,"ARG_OF_PERICENTER":89.7217,"MEAN_ANOMALY":270.3906,"EPHEMERIS_TYPE":0,"NORAD_CAT_ID":60419,"ELEMENT_SET_NO":999,"REV_AT_EPOCH":10378,"BSTAR":0.00038643312,"MEAN_MOTION_DOT":0.00003316,"MEAN_MOTION_DDOT":0},{"OBJECT_NAME":"CAPELLA-15 (ACADIA-5)","OBJECT_ID":"2024-149CE","EPOCH":"2026-07-08T18:40:01.354944","CLASSIFICATION_TYPE":"U","MEAN_MOTION":14.92382217,"ECCENTRICITY":0.00033866,"INCLINATION":97.6776,"RA_OF_ASC_NODE":262.1397,"ARG_OF_PERICENTER":8.7995,"MEAN_ANOMALY":351.3283,"EPHEMERIS_TYPE":0,"NORAD_CAT_ID":60544,"ELEMENT_SET_NO":999,"REV_AT_EPOCH":10307,"BSTAR":0.00020207209,"MEAN_MOTION_DOT":0.00002013,"MEAN_MOTION_DDOT":0},{"OBJECT_NAME":"CAPELLA-17 (ACADIA-7)","OBJECT_ID":"2025-135BH","EPOCH":"2026-07-08T20:58:09.055488","CLASSIFICATION_TYPE":"U","MEAN_MOTION":14.91577145,"ECCENTRICITY":0.00037409,"INCLINATION":97.77,"RA_OF_ASC_NODE":303.1751,"ARG_OF_PERICENTER":277.9877,"MEAN_ANOMALY":82.0917,"EPHEMERIS_TYPE":0,"NORAD_CAT_ID":64583,"ELEMENT_SET_NO":999,"REV_AT_EPOCH":5708,"BSTAR":0.00041998459,"MEAN_MOTION_DOT":0.00004158,"MEAN_MOTION_DDOT":0},{"OBJECT_NAME":"CAPELLA-16 (ACADIA-6)","OBJECT_ID":"2025-188D","EPOCH":"2026-07-08T22:12:46.641312","CLASSIFICATION_TYPE":"U","MEAN_MOTION":14.94003832,"ECCENTRICITY":0.00052003,"INCLINATION":97.7375,"RA_OF_ASC_NODE":264.7514,"ARG_OF_PERICENTER":152.8898,"MEAN_ANOMALY":207.2595,"EPHEMERIS_TYPE":0,"NORAD_CAT_ID":65318,"ELEMENT_SET_NO":999,"REV_AT_EPOCH":4716,"BSTAR":0.0003158809,"MEAN_MOTION_DOT":0.00003312,"MEAN_MOTION_DDOT":0},{"OBJECT_NAME":"CAPELLA-19 (ACADIA-9)","OBJECT_ID":"2026-004X","EPOCH":"2026-07-09T11:27:36.547776","CLASSIFICATION_TYPE":"U","MEAN_MOTION":14.8665191,"ECCENTRICITY":0.00015133,"INCLINATION":97.8006,"RA_OF_ASC_NODE":188.4486,"ARG_OF_PERICENTER":95.805,"MEAN_ANOMALY":264.3338,"EPHEMERIS_TYPE":0,"NORAD_CAT_ID":67384,"ELEMENT_SET_NO":999,"REV_AT_EPOCH":2658,"BSTAR":0.00042048422,"MEAN_MOTION_DOT":0.00003681,"MEAN_MOTION_DDOT":0},{"OBJECT_NAME":"CAPELLA-18 (ACADIA-8)","OBJECT_ID":"2026-004Y","EPOCH":"2026-07-09T11:42:03.528576","CLASSIFICATION_TYPE":"U","MEAN_MOTION":14.86647255,"ECCENTRICITY":0.00007957,"INCLINATION":97.802,"RA_OF_ASC_NODE":188.6087,"ARG_OF_PERICENTER":9.4479,"MEAN_ANOMALY":350.6751,"EPHEMERIS_TYPE":0,"NORAD_CAT_ID":67385,"ELEMENT_SET_NO":999,"REV_AT_EPOCH":2659,"BSTAR":0.000099145235,"MEAN_MOTION_DOT":0.00000827,"MEAN_MOTION_DDOT":0},{"OBJECT_NAME":"CAPELLA-20 (ACADIA-10)","OBJECT_ID":"2026-067BX","EPOCH":"2026-07-10T06:00:02.000160","CLASSIFICATION_TYPE":"U","MEAN_MOTION":14.91608831,"ECCENTRICITY":0.00008132,"INCLINATION":97.7579,"RA_OF_ASC_NODE":149.177,"ARG_OF_PERICENTER":142.1033,"MEAN_ANOMALY":300.9135,"EPHEMERIS_TYPE":0,"NORAD_CAT_ID":68485,"ELEMENT_SET_NO":999,"REV_AT_EPOCH":569,"BSTAR":0.0081597355,"MEAN_MOTION_DOT":0.00082793,"MEAN_MOTION_DDOT":0}]}
