CAPELLA-11 (ACADIA-1)   
1 57693U 23126A   26191.00493379  .00002803  00000+0  35454-3 0  9994
2 57693  53.0046  85.8570 0001024  95.7203 264.3892 14.84739223155510
CAPELLA-14 (ACADIA-4)   
1 59444U 24066C   26191.20254975  .00008211  00000+0  52376-3 0  9994
2 59444  45.6019 134.0485 0000226 275.7523  84.3337 15.09189190115962
CAPELLA-13 (ACADIA-3)   
1 60419U 24142A   26190.87394710  .00003316  00000+0  38643-3 0  9999
2 60419  53.0054 318.5396 0001246  89.7217 270.3906 14.87663021103785
CAPELLA-15 (ACADIA-5)   
1 60544U 24149CE  26189.77779346  .00002013  00000+0  20207-3 0  9994
2 60544  97.6776 262.1397 0003386   8.7995 351.3283 14.92382217103076
CAPELLA-17 (ACADIA-7)   
1 64583U 25135BH  26189.87371592  .00004158  00000+0  41998-3 0  9991
2 64583  97.7700 303.1751 0003740 277.9877  82.0917 14.91577145 57080
CAPELLA-16 (ACADIA-6)   
1 65318U 25188D   26189.92553983  .00003312  00000+0  31588-3 0  9993
2 65318  97.7375 264.7514 0005200 152.8898 207.2595 14.94003832 47162
CAPELLA-19 (ACADIA-9)   
1 67384U 26004X   26190.47750634  .00003681  00000+0  42048-3 0  9992
2 67384  97.8006 188.4486 0001513  95.8050 264.3338 14.86651910 26587
CAPELLA-18 (ACADIA-8)   
1 67385U 26004Y   26190.48754084  .00000827  00000+0  99145-4 0  9997
2 67385  97.8020 188.6087 0000795   9.4479 350.6751 14.86647255 26596
CAPELLA-20 (ACADIA-10)  
1 68485U 26067BX  26191.25002315  .00082793  00000+0  81597-2 0  9999
2 68485  97.7579 149.1770 0000813 142.1033 300.9135 14.91608831  5694
